{"type": "FeatureCollection", "features": [ {"type": "Feature", "properties": {"norad_id": 30386, "name": "FENGYUN 1C DEB", "group": "fengyun-1c-debris", "lat": 14.52316480355261, "lon": 69.5203622491008, "alt_km": 846.3701642579117, "timestamp": "2025-12-18T15:47:11.499241+00:00", "meta": {"OBJECT_NAME": "FENGYUN 1C DEB", "OBJECT_ID": "1999-025ACZ", "EPOCH": "2025-12-18T06:45:41.560128", "MEAN_MOTION": 13.55588005, "ECCENTRICITY": 0.0303951, "INCLINATION": 98.691, "RA_OF_ASC_NODE": 246.9176, "ARG_OF_PERICENTER": 141.3311, "MEAN_ANOMALY": 348.2801, "EPHEMERIS_TYPE": 0, "CLASSIFICATION_TYPE": "U", "NORAD_CAT_ID": 30386, "ELEMENT_SET_NO": 999, "REV_AT_EPOCH": 92904, "BSTAR": 0.0015341286, "MEAN_MOTION_DOT": 1.4e-05, "MEAN_MOTION_DDOT": 0}, "tle": {"line1": "1 30386U 99025ACZ 25352.28173102  .00001400  00000+0  15341-2 0  9996", "line2": "2 30386  98.6910 246.9176 0303951 141.3311 348.2801 13.55588005929045"}}, "geometry": {"type": "Point", "coordinates": [69.5203622491008, 14.52316480355261]}}, {"type": "Feature", "properties": {"norad_id": 30387, "name": "FENGYUN 1C DEB", "group": "fengyun-1c-debris", "lat": 81.33515153157724, "lon": -80.84543166433501, "alt_km": 833.7998973462818, "timestamp": "2025-12-18T15:47:11.499251+00:00", "meta": {"OBJECT_NAME": "FENGYUN 1C DEB", "OBJECT_ID": "1999-025ADA", "EPOCH": "2025-12-17T14:31:11.740800", "MEAN_MOTION": 14.150576, "ECCENTRICITY": 0.00011784, "INCLINATION": 98.6561, "RA_OF_ASC_NODE": 6.5295, "ARG_OF_PERICENTER": 94.3875, "MEAN_ANOMALY": 35.3285, "EPHEMERIS_TYPE": 0, "CLASSIFICATION_TYPE": "U", "NORAD_CAT_ID": 30387, "ELEMENT_SET_NO": 999, "REV_AT_EPOCH": 97393, "BSTAR": 0.00023314482, "MEAN_MOTION_DOT": 4.09e-06, "MEAN_MOTION_DDOT": 0}, "tle": {"line1": "1 30387U 99025ADA 25351.60499700  .00000409  00000+0  23314-3 0  9995", "line2": "2 30387  98.6561   6.5295 0001178  94.3875  35.3285 14.15057600973934"}}, "geometry": {"type": "Point", "coordinates": [-80.84543166433501, 81.33515153157724]}}, {"type": "Feature", "properties": {"norad_id": 30388, "name": "FENGYUN 1C DEB", "group": "fengyun-1c-debris", "lat": 71.53598781017854, "lon": -139.8930551113341, "alt_km": 738.0572112259106, "timestamp": "2025-12-18T15:47:11.499261+00:00", "meta": {"OBJECT_NAME": "FENGYUN 1C DEB", "OBJECT_ID": "1999-025ADB", "EPOCH": "2025-12-18T07:07:35.253984", "MEAN_MOTION": 14.19782658, "ECCENTRICITY": 0.02219016, "INCLINATION": 98.5989, "RA_OF_ASC_NODE": 12.8088, "ARG_OF_PERICENTER": 46.7892, "MEAN_ANOMALY": 14.1126, "EPHEMERIS_TYPE": 0, "CLASSIFICATION_TYPE": "U", "NORAD_CAT_ID": 30388, "ELEMENT_SET_NO": 999, "REV_AT_EPOCH": 97511, "BSTAR": 0.00038346279, "MEAN_MOTION_DOT": 9.95e-06, "MEAN_MOTION_DDOT": 0}, "tle": {"line1": "1 30388U 99025ADB 25352.29693581  .00000995  00000+0  38346-3 0  9996", "line2": "2 30388  98.5989  12.8088 0221901  46.7892  14.1126 14.19782658975119"}}, "geometry": {"type": "Point", "coordinates": [-139.8930551113341, 71.53598781017854]}}, {"type": "Feature", "properties": {"norad_id": 30389, "name": "FENGYUN 1C DEB", "group": "fengyun-1c-debris", "lat": -51.82436156386876, "lon": 85.54000401268058, "alt_km": 754.0113807699418, "timestamp": "2025-12-18T15:47:11.499271+00:00", "meta": {"OBJECT_NAME": "FENGYUN 1C DEB", "OBJECT_ID": "1999-025ADC", "EPOCH": "2025-12-18T04:38:16.899360", "MEAN_MOTION": 14.44138155, "ECCENTRICITY": 0.00145307, "INCLINATION": 98.8387, "RA_OF_ASC_NODE": 73.643, "ARG_OF_PERICENTER": 206.1017, "MEAN_ANOMALY": 207.4892, "EPHEMERIS_TYPE": 0, "CLASSIFICATION_TYPE": "U", "NORAD_CAT_ID": 30389, "ELEMENT_SET_NO": 999, "REV_AT_EPOCH": 97865, "BSTAR": 0.0017940916, "MEAN_MOTION_DOT": 6.115e-05, "MEAN_MOTION_DDOT": 0}, "tle": {"line1": "1 30389U 99025ADC 25352.19325115  .00006115  00000+0  17941-2 0  9998", "line2": "2 30389  98.8387  73.6430 0014530 206.1017 207.4892 14.44138155978654"}}, "geometry": {"type": "Point", "coordinates": [85.54000401268058, -51.82436156386876]}}, {"type": "Feature", "properties": {"norad_id": 30390, "name": "FENGYUN 1C DEB", "group": "fengyun-1c-debris", "lat": -24.724065745479994, "lon": -108.1598497998131, "alt_km": 771.4221035319279, "timestamp": "2025-12-18T15:47:11.499282+00:00", "meta": {"OBJECT_NAME": "FENGYUN 1C DEB", "OBJECT_ID": "1999-025ADD", "EPOCH": "2025-12-18T05:00:56.469024", "MEAN_MOTION": 14.29779908, "ECCENTRICITY": 0.00680238, "INCLINATION": 98.8229, "RA_OF_ASC_NODE": 75.4867, "ARG_OF_PERICENTER": 148.8827, "MEAN_ANOMALY": 266.7082, "EPHEMERIS_TYPE": 0, "CLASSIFICATION_TYPE": "U", "NORAD_CAT_ID": 30390, "ELEMENT_SET_NO": 999, "REV_AT_EPOCH": 97462, "BSTAR": 0.0014417673, "MEAN_MOTION_DOT": 3.754e-05, "MEAN_MOTION_DDOT": 0}, "tle": {"line1": "1 30390U 99025ADD 25352.20898691  .00003754  00000+0  14418-2 0  9998", "line2": "2 30390  98.8229  75.4867 0068023 148.8827 266.7082 14.29779908974624"}}, "geometry": {"type": "Point", "coordinates": [-108.1598497998131, -24.724065745479994]}}, {"type": "Feature", "properties": {"norad_id": 30391, "name": "FENGYUN 1C DEB", "group": "fengyun-1c-debris", "lat": -10.103597766933847, "lon": -142.99807619913426, "alt_km": 812.1921743933453, "timestamp": "2025-12-18T15:47:11.499292+00:00", "meta": {"OBJECT_NAME": "FENGYUN 1C DEB", "OBJECT_ID": "1999-025ADE", "EPOCH": "2025-12-18T03:18:58.759776", "MEAN_MOTION": 14.16261142, "ECCENTRICITY": 0.00716691, "INCLINATION": 98.7806, "RA_OF_ASC_NODE": 38.0678, "ARG_OF_PERICENTER": 246.5426, "MEAN_ANOMALY": 176.5571, "EPHEMERIS_TYPE": 0, "CLASSIFICATION_TYPE": "U", "NORAD_CAT_ID": 30391, "ELEMENT_SET_NO": 999, "REV_AT_EPOCH": 96955, "BSTAR": 0.00096837347, "MEAN_MOTION_DOT": 1.924e-05, "MEAN_MOTION_DDOT": 0}, "tle": {"line1": "1 30391U 99025ADE 25352.13818009  .00001924  00000+0  96837-3 0  9999", "line2": "2 30391  98.7806  38.0678 0071669 246.5426 176.5571 14.16261142969550"}}, "geometry": {"type": "Point", "coordinates": [-142.99807619913426, -10.103597766933847]}}, {"type": "Feature", "properties": {"norad_id": 30392, "name": "FENGYUN 1C DEB", "group": "fengyun-1c-debris", "lat": -5.634697614846261, "lon": 11.956678482013432, "alt_km": 744.5380277185559, "timestamp": "2025-12-18T15:47:11.499302+00:00", "meta": {"OBJECT_NAME": "FENGYUN 1C DEB", "OBJECT_ID": "1999-025ADF", "EPOCH": "2025-12-18T07:35:29.283360", "MEAN_MOTION": 14.07465945, "ECCENTRICITY": 0.01807435, "INCLINATION": 98.7851, "RA_OF_ASC_NODE": 10.7503, "ARG_OF_PERICENTER": 341.1514, "MEAN_ANOMALY": 83.5844, "EPHEMERIS_TYPE": 0, "CLASSIFICATION_TYPE": "U", "NORAD_CAT_ID": 30392, "ELEMENT_SET_NO": 999, "REV_AT_EPOCH": 96749, "BSTAR": 0.00049149533, "MEAN_MOTION_DOT": 9.17e-06, "MEAN_MOTION_DDOT": 0}, "tle": {"line1": "1 30392U 99025ADF 25352.31631115  .00000917  00000+0  49150-3 0  9998", "line2": "2 30392  98.7851  10.7503 0180743 341.1514  83.5844 14.07465945967497"}}, "geometry": {"type": "Point", "coordinates": [11.956678482013432, -5.634697614846261]}}, {"type": "Feature", "properties": {"norad_id": 30393, "name": "FENGYUN 1C DEB", "group": "fengyun-1c-debris", "lat": -80.37470831487273, "lon": 158.28765188220652, "alt_km": 857.9998831176599, "timestamp": "2025-12-18T15:47:11.499312+00:00", "meta": {"OBJECT_NAME": "FENGYUN 1C DEB", "OBJECT_ID": "1999-025ADG", "EPOCH": "2025-12-18T04:18:20.003616", "MEAN_MOTION": 13.98989047, "ECCENTRICITY": 0.00697027, "INCLINATION": 99.1647, "RA_OF_ASC_NODE": 49.9655, "ARG_OF_PERICENTER": 244.9831, "MEAN_ANOMALY": 133.8074, "EPHEMERIS_TYPE": 0, "CLASSIFICATION_TYPE": "U", "NORAD_CAT_ID": 30393, "ELEMENT_SET_NO": 999, "REV_AT_EPOCH": 96406, "BSTAR": 0.00025145262, "MEAN_MOTION_DOT": 3.25e-06, "MEAN_MOTION_DDOT": 0}, "tle": {"line1": "1 30393U 99025ADG 25352.17939819  .00000325  00000+0  25145-3 0  9996", "line2": "2 30393  99.1647  49.9655 0069702 244.9831 133.8074 13.98989047964068"}}, "geometry": {"type": "Point", "coordinates": [158.28765188220652, -80.37470831487273]}}, {"type": "Feature", "properties": {"norad_id": 30394, "name": "FENGYUN 1C DEB", "group": "fengyun-1c-debris", "lat": 10.203825635058124, "lon": -157.22385675032717, "alt_km": 902.397311598007, "timestamp": "2025-12-18T15:47:11.499322+00:00", "meta": {"OBJECT_NAME": "FENGYUN 1C DEB", "OBJECT_ID": "1999-025ADH", "EPOCH": "2025-12-18T01:28:55.589664", "MEAN_MOTION": 13.95790349, "ECCENTRICITY": 0.00898015, "INCLINATION": 99.4344, "RA_OF_ASC_NODE": 20.4511, "ARG_OF_PERICENTER": 87.1785, "MEAN_ANOMALY": 328.0585, "EPHEMERIS_TYPE": 0, "CLASSIFICATION_TYPE": "U", "NORAD_CAT_ID": 30394, "ELEMENT_SET_NO": 999, "REV_AT_EPOCH": 96178, "BSTAR": 8.0152853e-05, "MEAN_MOTION_DOT": 6.7e-07, "MEAN_MOTION_DDOT": 0}, "tle": {"line1": "1 30394U 99025ADH 25352.06175451  .00000067  00000+0  80153-4 0  9993", "line2": "2 30394  99.4344  20.4511 0089801  87.1785 328.0585 13.95790349961781"}}, "geometry": {"type": "Point", "coordinates": [-157.22385675032717, 10.203825635058124]}}, {"type": "Feature", "properties": {"norad_id": 30395, "name": "FENGYUN 1C DEB", "group": "fengyun-1c-debris", "lat": -22.763705827784857, "lon": 11.831065061637695, "alt_km": 812.0080675110194, "timestamp": "2025-12-18T15:47:11.499332+00:00", "meta": {"OBJECT_NAME": "FENGYUN 1C DEB", "OBJECT_ID": "1999-025ADJ", "EPOCH": "2025-12-18T07:24:37.415232", "MEAN_MOTION": 13.9669891, "ECCENTRICITY": 0.01600786, "INCLINATION": 98.9301, "RA_OF_ASC_NODE": 7.7092, "ARG_OF_PERICENTER": 10.8162, "MEAN_ANOMALY": 13.3408, "EPHEMERIS_TYPE": 0, "CLASSIFICATION_TYPE": "U", "NORAD_CAT_ID": 30395, "ELEMENT_SET_NO": 999, "REV_AT_EPOCH": 96101, "BSTAR": 0.00033669519, "MEAN_MOTION_DOT": 4.77e-06, "MEAN_MOTION_DDOT": 0}, "tle": {"line1": "1 30395U 99025ADJ 25352.30876638  .00000477  00000+0  33670-3 0  9992", "line2": "2 30395  98.9301   7.7092 0160078  10.8162  13.3408 13.96698910961015"}}, "geometry": {"type": "Point", "coordinates": [11.831065061637695, -22.763705827784857]}}]}